{"type": "FeatureCollection", "features": [ {"type": "Feature", "properties": {"norad_id": 66603, "name": "STARLINK-36048", "group": "last-30-days", "lat": 42.97306602574645, "lon": -28.936523439569555, "alt_km": 335.69287053884636, "timestamp": "2025-12-04T17:48:38.964497+00:00", "meta": {"OBJECT_NAME": "STARLINK-36048", "OBJECT_ID": "2025-270R", "EPOCH": "2025-12-03T21:40:34.816800", "MEAN_MOTION": 15.77266061, "ECCENTRICITY": 0.00104068, "INCLINATION": 42.9981, "RA_OF_ASC_NODE": 245.2035, "ARG_OF_PERICENTER": 263.8687, "MEAN_ANOMALY": 96.0997, "EPHEMERIS_TYPE": 0, "CLASSIFICATION_TYPE": "U", "NORAD_CAT_ID": 66603, "ELEMENT_SET_NO": 999, "REV_AT_EPOCH": 286, "BSTAR": 0.0029394154, "MEAN_MOTION_DOT": 0.00531136, "MEAN_MOTION_DDOT": 0}, "tle": {"line1": "1 66603U 25270R   25337.90318075  .00531136  00000+0  29394-2 0  9997", "line2": "2 66603  42.9981 245.2035 0010406 263.8687  96.0997 15.77266061  2865"}}, "geometry": {"type": "Point", "coordinates": [-28.936523439569555, 42.97306602574645]}}, {"type": "Feature", "properties": {"norad_id": 66604, "name": "STARLINK-35977", "group": "last-30-days", "lat": 42.870697068280634, "lon": -24.939314438326136, "alt_km": 329.9853667177422, "timestamp": "2025-12-04T17:48:38.964507+00:00", "meta": {"OBJECT_NAME": "STARLINK-35977", "OBJECT_ID": "2025-270S", "EPOCH": "2025-12-03T11:01:46.597440", "MEAN_MOTION": 15.77554299, "ECCENTRICITY": 0.00039426, "INCLINATION": 42.9996, "RA_OF_ASC_NODE": 247.8966, "ARG_OF_PERICENTER": 347.7852, "MEAN_ANOMALY": 12.2922, "EPHEMERIS_TYPE": 0, "CLASSIFICATION_TYPE": "U", "NORAD_CAT_ID": 66604, "ELEMENT_SET_NO": 999, "REV_AT_EPOCH": 289, "BSTAR": 0.00071417663, "MEAN_MOTION_DOT": 0.00123952, "MEAN_MOTION_DDOT": 0}, "tle": {"line1": "1 66604U 25270S   25337.45956710  .00123952  00000+0  71418-3 0  9990", "line2": "2 66604  42.9996 247.8966 0003942 347.7852  12.2922 15.77554299  2890"}}, "geometry": {"type": "Point", "coordinates": [-24.939314438326136, 42.870697068280634]}}, {"type": "Feature", "properties": {"norad_id": 66605, "name": "STARLINK-36052", "group": "last-30-days", "lat": 42.82045033964614, "lon": -35.88620603712612, "alt_km": 337.0753874119873, "timestamp": "2025-12-04T17:48:38.964516+00:00", "meta": {"OBJECT_NAME": "STARLINK-36052", "OBJECT_ID": "2025-270T", "EPOCH": "2025-12-04T05:16:38.719776", "MEAN_MOTION": 15.75289025, "ECCENTRICITY": 0.000214, "INCLINATION": 42.9979, "RA_OF_ASC_NODE": 243.2778, "ARG_OF_PERICENTER": 231.812, "MEAN_ANOMALY": 128.2557, "EPHEMERIS_TYPE": 0, "CLASSIFICATION_TYPE": "U", "NORAD_CAT_ID": 66605, "ELEMENT_SET_NO": 999, "REV_AT_EPOCH": 301, "BSTAR": 0.0024289283, "MEAN_MOTION_DOT": 0.00394919, "MEAN_MOTION_DDOT": 0}, "tle": {"line1": "1 66605U 25270T   25338.21989259  .00394919  00000+0  24289-2 0  9996", "line2": "2 66605  42.9979 243.2778 0002140 231.8120 128.2557 15.75289025  3010"}}, "geometry": {"type": "Point", "coordinates": [-35.88620603712612, 42.82045033964614]}}, {"type": "Feature", "properties": {"norad_id": 66606, "name": "STARLINK-36063", "group": "last-30-days", "lat": 38.80757967135846, "lon": -60.175978649377335, "alt_km": 385.709979830438, "timestamp": "2025-12-04T17:48:38.964526+00:00", "meta": {"OBJECT_NAME": "STARLINK-36063", "OBJECT_ID": "2025-270U", "EPOCH": "2025-12-04T02:13:26.401152", "MEAN_MOTION": 15.70932101, "ECCENTRICITY": 0.0031868, "INCLINATION": 42.9978, "RA_OF_ASC_NODE": 244.043, "ARG_OF_PERICENTER": 182.8429, "MEAN_ANOMALY": 177.2262, "EPHEMERIS_TYPE": 0, "CLASSIFICATION_TYPE": "U", "NORAD_CAT_ID": 66606, "ELEMENT_SET_NO": 999, "REV_AT_EPOCH": 299, "BSTAR": -0.056770882, "MEAN_MOTION_DOT": -0.06178149, "MEAN_MOTION_DDOT": 0}, "tle": {"line1": "1 66606U 25270U   25338.09266668 -.06178149  00000+0 -56771-1 0  9998", "line2": "2 66606  42.9978 244.0430 0031868 182.8429 177.2262 15.70932101  2998"}}, "geometry": {"type": "Point", "coordinates": [-60.175978649377335, 38.80757967135846]}}, {"type": "Feature", "properties": {"norad_id": 66607, "name": "STARLINK-35993", "group": "last-30-days", "lat": 42.8777185811438, "lon": -34.682207906957174, "alt_km": 339.65369403630393, "timestamp": "2025-12-04T17:48:38.964539+00:00", "meta": {"OBJECT_NAME": "STARLINK-35993", "OBJECT_ID": "2025-270V", "EPOCH": "2025-12-04T00:42:13.697280", "MEAN_MOTION": 15.75244198, "ECCENTRICITY": 0.00015476, "INCLINATION": 42.9984, "RA_OF_ASC_NODE": 244.4293, "ARG_OF_PERICENTER": 280.1184, "MEAN_ANOMALY": 79.9511, "EPHEMERIS_TYPE": 0, "CLASSIFICATION_TYPE": "U", "NORAD_CAT_ID": 66607, "ELEMENT_SET_NO": 999, "REV_AT_EPOCH": 288, "BSTAR": -0.0024272821, "MEAN_MOTION_DOT": -0.00361066, "MEAN_MOTION_DDOT": 0}, "tle": {"line1": "1 66607U 25270V   25338.02932520 -.00361066  00000+0 -24273-2 0  9998", "line2": "2 66607  42.9984 244.4293 0001547 280.1184  79.9511 15.75244198  2888"}}, "geometry": {"type": "Point", "coordinates": [-34.682207906957174, 42.8777185811438]}}, {"type": "Feature", "properties": {"norad_id": 66608, "name": "STARLINK-36036", "group": "last-30-days", "lat": 42.96996657266319, "lon": -28.607735012338757, "alt_km": 337.6208504884589, "timestamp": "2025-12-04T17:48:38.964549+00:00", "meta": {"OBJECT_NAME": "STARLINK-36036", "OBJECT_ID": "2025-270W", "EPOCH": "2025-12-04T05:15:11.882592", "MEAN_MOTION": 15.75206645, "ECCENTRICITY": 0.00013364, "INCLINATION": 42.9982, "RA_OF_ASC_NODE": 243.2689, "ARG_OF_PERICENTER": 286.6159, "MEAN_ANOMALY": 73.4563, "EPHEMERIS_TYPE": 0, "CLASSIFICATION_TYPE": "U", "NORAD_CAT_ID": 66608, "ELEMENT_SET_NO": 999, "REV_AT_EPOCH": 285, "BSTAR": 0.00089241727, "MEAN_MOTION_DOT": 0.00139923, "MEAN_MOTION_DDOT": 0}, "tle": {"line1": "1 66608U 25270W   25338.21888753  .00139923  00000+0  89242-3 0  9999", "line2": "2 66608  42.9982 243.2689 0001336 286.6159  73.4563 15.75206645  2850"}}, "geometry": {"type": "Point", "coordinates": [-28.607735012338757, 42.96996657266319]}}, {"type": "Feature", "properties": {"norad_id": 66609, "name": "STARLINK-36034", "group": "last-30-days", "lat": 42.91966163739461, "lon": -26.23887786356554, "alt_km": 338.6146026856959, "timestamp": "2025-12-04T17:48:38.964559+00:00", "meta": {"OBJECT_NAME": "STARLINK-36034", "OBJECT_ID": "2025-270X", "EPOCH": "2025-12-04T03:43:23.820384", "MEAN_MOTION": 15.75158177, "ECCENTRICITY": 0.00020311, "INCLINATION": 42.9993, "RA_OF_ASC_NODE": 243.6507, "ARG_OF_PERICENTER": 265.992, "MEAN_ANOMALY": 94.0717, "EPHEMERIS_TYPE": 0, "CLASSIFICATION_TYPE": "U", "NORAD_CAT_ID": 66609, "ELEMENT_SET_NO": 999, "REV_AT_EPOCH": 284, "BSTAR": 0.00017231118, "MEAN_MOTION_DOT": 0.00026211, "MEAN_MOTION_DDOT": 0}, "tle": {"line1": "1 66609U 25270X   25338.15513681  .00026211  00000+0  17231-3 0  9992", "line2": "2 66609  42.9993 243.6507 0002031 265.9920  94.0717 15.75158177  2840"}}, "geometry": {"type": "Point", "coordinates": [-26.23887786356554, 42.91966163739461]}}, {"type": "Feature", "properties": {"norad_id": 66610, "name": "STARLINK-35680", "group": "last-30-days", "lat": 42.609166935962676, "lon": -20.741147216703435, "alt_km": 338.4093994118757, "timestamp": "2025-12-04T17:48:38.964574+00:00", "meta": {"OBJECT_NAME": "STARLINK-35680", "OBJECT_ID": "2025-270Y", "EPOCH": "2025-12-04T03:42:25.332768", "MEAN_MOTION": 15.75092921, "ECCENTRICITY": 0.00031224, "INCLINATION": 42.9982, "RA_OF_ASC_NODE": 243.6469, "ARG_OF_PERICENTER": 250.5406, "MEAN_ANOMALY": 109.5126, "EPHEMERIS_TYPE": 0, "CLASSIFICATION_TYPE": "U", "NORAD_CAT_ID": 66610, "ELEMENT_SET_NO": 999, "REV_AT_EPOCH": 311, "BSTAR": 0.0020650963, "MEAN_MOTION_DOT": 0.00330274, "MEAN_MOTION_DDOT": 0}, "tle": {"line1": "1 66610U 25270Y   25338.15445987  .00330274  00000+0  20651-2 0  9993", "line2": "2 66610  42.9982 243.6469 0003122 250.5406 109.5126 15.75092921  3119"}}, "geometry": {"type": "Point", "coordinates": [-20.741147216703435, 42.609166935962676]}}, {"type": "Feature", "properties": {"norad_id": 66611, "name": "STARLINK-35583", "group": "last-30-days", "lat": 42.65637595645442, "lon": -21.34596893090979, "alt_km": 339.76510215600683, "timestamp": "2025-12-04T17:48:38.964586+00:00", "meta": {"OBJECT_NAME": "STARLINK-35583", "OBJECT_ID": "2025-270Z", "EPOCH": "2025-12-04T00:39:47.360736", "MEAN_MOTION": 15.75261982, "ECCENTRICITY": 0.0002117, "INCLINATION": 42.9983, "RA_OF_ASC_NODE": 244.4157, "ARG_OF_PERICENTER": 269.8179, "MEAN_ANOMALY": 90.2447, "EPHEMERIS_TYPE": 0, "CLASSIFICATION_TYPE": "U", "NORAD_CAT_ID": 66611, "ELEMENT_SET_NO": 999, "REV_AT_EPOCH": 309, "BSTAR": -0.0019238022, "MEAN_MOTION_DOT": -0.00288953, "MEAN_MOTION_DDOT": 0}, "tle": {"line1": "1 66611U 25270Z   25338.02763149 -.00288953  00000+0 -19238-2 0  9990", "line2": "2 66611  42.9983 244.4157 0002117 269.8179  90.2447 15.75261982  3091"}}, "geometry": {"type": "Point", "coordinates": [-21.34596893090979, 42.65637595645442]}}, {"type": "Feature", "properties": {"norad_id": 66612, "name": "STARLINK-36039", "group": "last-30-days", "lat": 41.79248292954658, "lon": -13.533596412588032, "alt_km": 340.216988866041, "timestamp": "2025-12-04T17:48:38.964598+00:00", "meta": {"OBJECT_NAME": "STARLINK-36039", "OBJECT_ID": "2025-270AA", "EPOCH": "2025-12-04T05:12:15.198048", "MEAN_MOTION": 15.75321693, "ECCENTRICITY": 0.00024682, "INCLINATION": 42.9986, "RA_OF_ASC_NODE": 243.2518, "ARG_OF_PERICENTER": 288.8631, "MEAN_ANOMALY": 71.1971, "EPHEMERIS_TYPE": 0, "CLASSIFICATION_TYPE": "U", "NORAD_CAT_ID": 66612, "ELEMENT_SET_NO": 999, "REV_AT_EPOCH": 301, "BSTAR": -0.0032170008, "MEAN_MOTION_DOT": -0.00473872, "MEAN_MOTION_DDOT": 0}, "tle": {"line1": "1 66612U 25270AA  25338.21684257 -.00473872  00000+0 -32170-2 0  9990", "line2": "2 66612  42.9986 243.2518 0002468 288.8631  71.1971 15.75321693  3014"}}, "geometry": {"type": "Point", "coordinates": [-13.533596412588032, 41.79248292954658]}}]}